[{"OBJECT_NAME":"TRANSPORTER-14 OBJECT AE","OBJECT_ID":"2025-135AE","EPOCH":"2026-03-09T20:11:29.488128","MEAN_MOTION":15.24010322,"ECCENTRICITY":0.00026151,"INCLINATION":97.4617,"RA_OF_ASC_NODE":185.7106,"ARG_OF_PERICENTER":72.7943,"MEAN_ANOMALY":287.358,"EPHEMERIS_TYPE":0,"CLASSIFICATION_TYPE":"U","NORAD_CAT_ID":64556,"ELEMENT_SET_NO":999,"REV_AT_EPOCH":3980,"BSTAR":0.00048718914,"MEAN_MOTION_DOT":0.00011742,"MEAN_MOTION_DDOT":0},{"OBJECT_NAME":"STARLINK-35892","OBJECT_ID":"2025-299P","EPOCH":"2026-03-09T22:00:01.999584","MEAN_MOTION":15.36716354,"ECCENTRICITY":0.00012105,"INCLINATION":43.0012,"RA_OF_ASC_NODE":167.5797,"ARG_OF_PERICENTER":270.1042,"MEAN_ANOMALY":50.5728,"EPHEMERIS_TYPE":0,"CLASSIFICATION_TYPE":"U","NORAD_CAT_ID":67115,"ELEMENT_SET_NO":999,"REV_AT_EPOCH":569,"BSTAR":-0.062767387,"MEAN_MOTION_DOT":-0.02076305,"MEAN_MOTION_DDOT":0}]
